OBJECT_NAME,OBJECT_ID,EPOCH,MEAN_MOTION,ECCENTRICITY,INCLINATION,RA_OF_ASC_NODE,ARG_OF_PERICENTER,MEAN_ANOMALY,EPHEMERIS_TYPE,CLASSIFICATION_TYPE,NORAD_CAT_ID,ELEMENT_SET_NO,REV_AT_EPOCH,BSTAR,MEAN_MOTION_DOT,MEAN_MOTION_DDOT
STARLINK-37927,2026-135L,2026-07-04T01:01:31.719072,15.80958519,.00012235,97.2822,213.0417,149.3991,210.7349,0,U,69556,999,292,.15983003E-2,.319567E-2,0
STARLINK-37929,2026-135M,2026-07-04T19:14:10.078656,15.80838099,.00010242,97.2838,213.8464,29.7415,330.3911,0,U,69557,999,304,.22786649E-2,.460682E-2,0
STARLINK-37954,2026-135N,2026-07-04T19:12:25.829280,15.80856938,.00036982,97.2835,213.8485,69.8959,290.2707,0,U,69558,999,304,.28104147E-2,.576377E-2,0
STARLINK-37958,2026-135P,2026-07-04T00:00:02.999808,15.80773563,.00014227,97.2829,213.0090,88.1489,54.8962,0,U,69559,999,401,.55098621E-3,.106489E-2,0
STARLINK-37950,2026-135Q,2026-07-04T16:00:03.000096,15.80946533,.00014818,97.2835,213.7141,106.6144,228.7052,0,U,69560,999,412,-.14687541E-2,-.274471E-2,0
STARLINK-37952,2026-135R,2026-07-04T13:02:00.827232,15.81055155,.0000665,97.2825,213.5859,58.3151,301.8182,0,U,69561,999,300,.25303358E-2,.520294E-2,0
STARLINK-37935,2026-135S,2026-07-04T13:00:54.185184,15.81084957,.00008899,97.2830,213.5875,21.5494,338.5812,0,U,69562,999,300,.25249846E-2,.519856E-2,0
STARLINK-37936,2026-135T,2026-07-04T22:00:03.000096,15.80775645,.00008239,97.2833,214.0019,79.5110,289.7887,0,U,69563,999,416,.43617809E-3,.84059E-3,0
STARLINK-37932,2026-135U,2026-07-04T08:16:49.762560,15.80951213,.00037663,97.2833,213.3963,105.3985,254.7699,0,U,69564,999,297,.21208161E-2,.429416E-2,0
STARLINK-37916,2026-135V,2026-07-04T12:49:29.854848,15.81111575,.00015987,97.2825,213.5981,57.2446,302.8977,0,U,69565,999,300,.29931096E-2,.624548E-2,0
STARLINK-37909,2026-135W,2026-07-04T12:40:24.312288,15.81130129,.00013356,97.2838,213.6070,31.8421,328.2928,0,U,69566,999,300,.30681467E-2,.642088E-2,0
STARLINK-37934,2026-135X,2026-07-04T12:45:00.251424,15.81069869,.00007773,97.2830,213.6034,278.3803,81.7377,0,U,69567,999,300,.30572478E-2,.637793E-2,0
STARLINK-37938,2026-135Y,2026-07-04T12:41:29.910624,15.81066133,.0001191,97.2843,213.6069,39.4334,320.7021,0,U,69568,999,300,.23763332E-2,.48693E-2,0
STARLINK-37924,2026-135Z,2026-07-04T12:37:31.543392,15.80961394,.00015087,97.2835,213.6097,74.1589,285.9845,0,U,69569,999,300,.24547633E-2,.501445E-2,0
SHIJIAN-31 (SJ-31),2026-136A,2026-07-04T15:53:20.995584,1.92224731,.69406896,63.4828,354.2789,171.8019,212.4076,0,U,69570,999,42,0,-.56E-6,0
CZ-3B R/B,2026-136B,2026-07-02T23:34:16.608288,2.30680559,.7314459,63.4368,352.9093,171.4625,217.0591,0,U,69571,999,39,.41251E-3,.285561E-2,.34843E-4
GUOWANG OBJECT A,2026-137A,2026-07-04T06:19:59.342592,13.89813412,.00126449,49.9994,187.4054,281.9824,77.9657,0,U,69572,999,239,.46473611E-4,-.88E-6,0
GUOWANG OBJECT B,2026-137B,2026-07-04T06:15:47.203200,13.89804927,.00118447,50.0015,187.3886,281.1445,78.8122,0,U,69573,999,240,-.9786213E-5,-.158E-5,0
GUOWANG OBJECT C,2026-137C,2026-07-04T01:03:38.237184,13.89815737,.0011939,49.9957,188.2290,281.9173,78.0386,0,U,69574,999,237,-.1279541E-4,-.162E-5,0
GUOWANG OBJECT D,2026-137D,2026-07-04T16:33:57.389184,13.89828409,.0011148,49.9953,185.6466,282.9923,76.9731,0,U,69575,999,246,-.26923E-4,-.179E-5,0
GUOWANG OBJECT E,2026-137E,2026-07-04T06:11:16.714176,13.89825933,.00112472,50.0031,187.3789,284.2931,75.6718,0,U,69576,999,240,-.46854787E-4,-.204E-5,0
GUOWANG OBJECT F,2026-137F,2026-07-04T23:25:25.860864,13.89810112,.00108656,50.0022,184.5111,286.3523,73.6181,0,U,69577,999,250,-.53444443E-4,-.212E-5,0
GUOWANG OBJECT G,2026-137G,2026-07-04T23:24:06.544800,13.89795023,.00108072,49.9950,184.4881,286.4358,73.5352,0,U,69578,999,250,-.73356194E-4,-.237E-5,0
GUOWANG OBJECT H,2026-137H,2026-06-25T11:38:14.756064,13.92076941,.0010122,49.9967,222.2731,259.8752,100.1006,0,U,69579,999,118,.1427E-3,.37E-6,0
GUOWANG OBJECT J,2026-137J,2026-06-27T06:41:01.268160,13.91997107,.0011832,49.9961,215.0979,257.3150,102.6427,0,U,69580,999,143,.13174E-3,.22E-6,0
CZ-12 R/B,2026-137K,2026-07-04T17:08:52.921824,14.11692482,.00774538,49.9873,183.0694,173.8512,186.3363,0,U,69581,999,248,.40239668E-4,-.79E-6,0
CENTISPACE-1 GROUP 05 OBJECT A,2026-138A,2026-07-04T19:06:22.038624,14.15472328,.00106075,55.1392,216.1466,320.5496,39.4705,0,U,69582,999,251,-.90842805E-4,-.332E-5,0
CENTISPACE-1 GROUP 05 OBJECT B,2026-138B,2026-07-04T19:03:05.965920,14.15653295,.00095826,55.1389,216.1330,320.6260,39.4017,0,U,69583,999,251,-.11081537E-3,-.372E-5,0
CENTISPACE-1 GROUP 05 OBJECT C,2026-138C,2026-07-04T19:01:34.146912,14.15737457,.00095057,55.1395,216.1359,322.3412,37.6896,0,U,69584,999,251,-.10706475E-3,-.365E-5,0
CENTISPACE-1 GROUP 05 OBJECT D,2026-138D,2026-07-04T18:58:30.819936,14.15924166,.00090563,55.1396,216.1158,321.2816,38.7509,0,U,69585,999,251,-.14533832E-3,-.441E-5,0
